NORAD_CAT_ID,OBJECT_NAME,OBJECT_TYPE,EPOCH,MEAN_MOTION,ECCENTRICITY,INCLINATION,RA_OF_ASC_NODE,ARG_OF_PERICENTER,MEAN_ANOMALY,BSTAR,MEAN_MOTION_DOT,MEAN_MOTION_DDOT,TLE_LINE0,TLE_LINE1,TLE_LINE2,SEMIMAJOR_AXIS,PERIOD,APOGEE,PERIGEE,DECAYED
51815.0,STARLINK-3604,PAYLOAD,2024-04-02 20:16:35,15.08870733,0.0001662,53.2158,257.7816,64.229,295.8874,0.00084534,0.00013202,0.0,0 STARLINK-3604,1 51815U 22017AZ  24093.84485023  .00013202  00000-0  84534-3 0  9999,2 51815  53.2158 257.7816 0001662  64.2290 295.8874 15.08870733117521,6917.786,95.436,540.801,538.502,0.0
51815.0,STARLINK-3604,PAYLOAD,2024-04-03 04:13:30,15.08864287,0.0001694,53.2155,256.2942,65.3845,294.7323,0.00043633,6.668e-05,0.0,0 STARLINK-3604,1 51815U 22017AZ  24094.17604747  .00006668  00000-0  43633-3 0  9995,2 51815  53.2155 256.2942 0001694  65.3845 294.7323 15.08864287117697,6917.806,95.436,540.843,538.499,0.0
51815.0,STARLINK-3604,PAYLOAD,2024-04-03 10:35:02,15.08867791,4.48e-05,53.2158,255.105,28.1326,331.969,0.00036252,5.491e-05,0.0,0 STARLINK-3604,1 51815U 22017AZ  24094.44099758  .00005491  00000-0  36252-3 0  9997,2 51815  53.2158 255.1050 0000448  28.1326 331.9690 15.08867791117611,6917.795,95.436,539.97,539.351,0.0
51815.0,STARLINK-3604,PAYLOAD,2024-04-03 20:07:19,15.08903659,0.0001392,53.2159,253.3198,69.0476,291.0665,0.001318,0.00020787,0.0,0 STARLINK-3604,1 51815U 22017AZ  24094.83842281  .00020787  00000-0  13180-2 0  9996,2 51815  53.2159 253.3198 0001392  69.0476 291.0665 15.08903659117795,6917.686,95.434,540.514,538.588,0.0
51815.0,STARLINK-3604,PAYLOAD,2024-04-04 04:04:15,15.08861336,0.000103,53.2164,251.8339,70.7589,289.3514,-0.00044441,-7.358e-05,0.0,0 STARLINK-3604,1 51815U 22017AZ  24095.16962239 -.00007358  00000-0 -44441-3 0  9995,2 51815  53.2164 251.8339 0001030  70.7589 289.3514 15.08861336117848,6917.815,95.436,540.393,538.968,0.0
51815.0,STARLINK-3604,PAYLOAD,2024-04-04 10:25:48,15.08834304,0.0001475,53.2157,250.6445,80.0264,280.0894,-0.00097869,-0.00015828,0.0,0 STARLINK-3604,1 51815U 22017AZ  24095.43458831 -.00015828  00000-0 -97869-3 0  9996,2 51815  53.2157 250.6445 0001475  80.0264 280.0894 15.08834304117880,6917.898,95.438,540.783,538.742,0.0
51815.0,STARLINK-3604,PAYLOAD,2024-04-04 13:36:34,15.08828985,0.0001135,53.2159,250.0498,83.2755,276.8366,-0.00087106,-0.0001412,0.0,0 STARLINK-3604,1 51815U 22017AZ  24095.56706945 -.00014120  00000-0 -87106-3 0  9999,2 51815  53.2159 250.0498 0001135  83.2755 276.8366 15.08828985117781,6917.914,95.438,540.564,538.994,0.0
51815.0,STARLINK-3604,PAYLOAD,2024-04-04 16:47:21,15.08828767,0.0001213,53.2162,249.4553,80.7695,279.3434,-0.00050329,-8.286e-05,0.0,0 STARLINK-3604,1 51815U 22017AZ  24095.69955184 -.00008286  00000-0 -50329-3 0  9997,2 51815  53.2162 249.4553 0001213  80.7695 279.3434 15.08828767117806,6917.915,95.438,540.619,538.941,0.0
51815.0,STARLINK-3604,PAYLOAD,2024-04-05 10:16:36,15.08836472,0.0001221,53.2165,246.1841,84.5616,275.5515,0.0012577,0.00019783,0.0,0 STARLINK-3604,1 51815U 22017AZ  24096.42820330  .00019783  00000-0  12577-2 0  9997,2 51815  53.2165 246.1841 0001221  84.5616 275.5515 15.08836472118033,6917.891,95.438,540.601,538.911,0.0
51815.0,STARLINK-3604,PAYLOAD,2024-04-05 13:27:23,15.08842489,0.0001214,53.2166,245.5895,83.5925,276.5206,0.0012791,0.00020129,0.0,0 STARLINK-3604,1 51815U 22017AZ  24096.56068308  .00020129  00000-0  12791-2 0  9995,2 51815  53.2166 245.5895 0001214  83.5925 276.5206 15.08842489117931,6917.873,95.437,540.578,538.898,0.0
51815.0,STARLINK-3604,PAYLOAD,2024-04-05 19:48:55,15.08858058,0.0001217,53.2166,244.3993,83.2112,276.9019,0.0014719,0.00023226,0.0,0 STARLINK-3604,1 51815U 22017AZ  24096.82564049  .00023226  00000-0  14719-2 0  9990,2 51815  53.2166 244.3993 0001217  83.2112 276.9019 15.08858058117974,6917.825,95.436,540.532,538.848,0.0
51815.0,STARLINK-3604,PAYLOAD,2024-04-06 10:07:24,15.0883698,0.0001221,53.2172,241.7233,45.0368,315.0723,0.00088867,0.00013882,0.0,0 STARLINK-3604,1 51815U 22017AZ  24097.42180752  .00013882  00000-0  88867-3 0  9995,2 51815  53.2172 241.7233 0001221  45.0368 315.0723 15.08836980118184,6917.89,95.438,540.599,538.91,0.0
51815.0,STARLINK-3604,PAYLOAD,2024-04-06 16:28:56,15.08834675,3.81e-05,53.2173,240.5343,11.3468,348.7533,0.0012147,0.00019094,0.0,0 STARLINK-3604,1 51815U 22017AZ  24097.68676796  .00019094  00000-0  12147-2 0  9999,2 51815  53.2173 240.5343 0000381  11.3468 348.7533 15.08834675118100,6917.897,95.438,540.025,539.498,0.0
51815.0,STARLINK-3604,PAYLOAD,2024-04-07 09:58:11,15.08841075,5.91e-05,53.2178,237.2633,47.9152,312.1891,0.00058825,9.087e-05,0.0,0 STARLINK-3604,1 51815U 22017AZ  24098.41541059  .00009087  00000-0  58825-3 0  9999,2 51815  53.2178 237.2633 0000591  47.9152 312.1891 15.08841075118337,6917.877,95.437,540.151,539.333,0.0
51815.0,STARLINK-3604,PAYLOAD,2024-04-07 17:55:07,15.08845754,0.0001391,53.217,235.7764,88.1136,272.0015,0.0004767,7.308e-05,0.0,0 STARLINK-3604,1 51815U 22017AZ  24098.74660899  .00007308  00000-0  47670-3 0  9999,2 51815  53.2170 235.7764 0001391  88.1136 272.0015 15.08845754118267,6917.863,95.437,540.69,538.766,0.0
51815.0,STARLINK-3604,PAYLOAD,2024-04-08 09:48:58,15.08841244,0.0001458,53.2201,232.8041,89.1028,271.0131,0.00015391,2.162e-05,0.0,0 STARLINK-3604,1 51815U 22017AZ  24099.40901008  .00002162  00000-0  15391-3 0  9991,2 51815  53.2201 232.8041 0001458  89.1028 271.0131 15.08841244118485,6917.877,95.437,540.75,538.733,0.0
51815.0,STARLINK-3604,PAYLOAD,2024-04-09 01:42:49,15.08842131,0.0001451,53.2197,229.8304,86.9552,273.1606,0.00015169,2.127e-05,0.0,0 STARLINK-3604,1 51815U 22017AZ  24100.07141068  .00002127  00000-0  15169-3 0  9993,2 51815  53.2197 229.8304 0001451  86.9552 273.1606 15.08842131118461,6917.874,95.437,540.743,538.735,0.0
51815.0,STARLINK-3604,PAYLOAD,2024-04-09 17:36:41,15.08844083,0.0001535,53.2183,226.8563,84.0701,276.0466,0.00015352,2.156e-05,0.0,0 STARLINK-3604,1 51815U 22017AZ  24100.73381057  .00002156  00000-0  15352-3 0  9996,2 51815  53.2183 226.8563 0001535  84.0701 276.0466 15.08844083118686,6917.868,95.437,540.795,538.671,0.0
51815.0,STARLINK-3604,PAYLOAD,2024-04-10 14:16:41,15.08848723,0.0001505,53.2165,222.991,84.3515,275.7649,0.00024337,3.588e-05,0.0,0 STARLINK-3604,1 51815U 22017AZ  24101.59492769  .00003588  00000-0  24337-3 0  9997,2 51815  53.2165 222.9910 0001505  84.3515 275.7649 15.08848723118697,6917.854,95.437,540.76,538.678,0.0
51815.0,STARLINK-3604,PAYLOAD,2024-04-11 01:24:23,15.08852789,7.24e-05,53.217,220.908,63.1012,297.0054,0.00030178,4.52e-05,0.0,0 STARLINK-3604,1 51815U 22017AZ  24102.05860364  .00004520  00000-0  30178-3 0  9996,2 51815  53.2170 220.9080 0000724  63.1012 297.0054 15.08852789118883,6917.841,95.437,540.207,539.205,0.0
51815.0,STARLINK-3604,PAYLOAD,2024-04-11 12:32:05,15.08839284,0.0001681,53.2143,218.8274,76.3182,283.7997,4.6328e-05,4.49e-06,0.0,0 STARLINK-3604,1 51815U 22017AZ  24102.52229147  .00000449  00000-0  46328-4 0  9997,2 51815  53.2143 218.8274 0001681  76.3182 283.7997 15.08839284118952,6917.883,95.438,540.91,538.585,0.0
51815.0,STARLINK-3604,PAYLOAD,2024-04-11 14:07:29,15.08842667,0.0001775,53.2142,218.5273,84.0293,276.0902,8.8535e-05,1.121e-05,0.0,0 STARLINK-3604,1 51815U 22017AZ  24102.58853056  .00001121  00000-0  88535-4 0  9999,2 51815  53.2142 218.5273 0001775  84.0293 276.0902 15.08842667118848,6917.872,95.437,540.965,538.509,0.0
51815.0,STARLINK-3604,PAYLOAD,2024-04-12 13:58:16,15.08840474,0.0001431,53.2174,214.0683,85.6498,274.4658,-1.9666e-06,-3.19e-06,0.0,0 STARLINK-3604,1 51815U 22017AZ  24103.58213242 -.00000319  00000-0 -19666-5 0  9997,2 51815  53.2174 214.0683 0001431  85.6498 274.4658 15.08840474118992,6917.879,95.438,540.734,538.754,0.0
51815.0,STARLINK-3604,PAYLOAD,2024-04-13 13:49:03,15.08844804,0.0001319,53.2189,209.6088,81.4422,278.672,0.00011534,1.548e-05,0.0,0 STARLINK-3604,1 51815U 22017AZ  24104.57572948  .00001548  00000-0  11534-3 0  9995,2 51815  53.2189 209.6088 0001319  81.4422 278.6720 15.08844804119148,6917.866,95.437,540.643,538.818,0.0
51815.0,STARLINK-3604,PAYLOAD,2024-04-14 12:04:27,15.0884404,0.0001447,53.2174,205.4456,88.4274,271.6884,0.00015346,2.155e-05,0.0,0 STARLINK-3604,1 51815U 22017AZ  24105.50309214  .00002155  00000-0  15346-3 0  9993,2 51815  53.2174 205.4456 0001447  88.4274 271.6884 15.08844040119404,6917.868,95.437,540.734,538.732,0.0
51815.0,STARLINK-3604,PAYLOAD,2024-04-14 13:39:50,15.08846831,0.0001514,53.2179,205.1488,97.5401,262.5763,0.00017528,2.503e-05,0.0,0 STARLINK-3604,1 51815U 22017AZ  24105.56933030  .00002503  00000-0  17528-3 0  9999,2 51815  53.2179 205.1488 0001514  97.5401 262.5763 15.08846831119291,6917.86,95.437,540.772,538.677,0.0
51815.0,STARLINK-3604,PAYLOAD,2024-04-15 11:55:14,15.08844935,0.0001479,53.2175,200.9848,87.2885,272.8276,7.7256e-05,9.42e-06,0.0,0 STARLINK-3604,1 51815U 22017AZ  24106.49669065  .00000942  00000-0  77256-4 0  9996,2 51815  53.2175 200.9848 0001479  87.2885 272.8276 15.08844935119434,6917.865,95.437,540.753,538.707,0.0
51815.0,STARLINK-3604,PAYLOAD,2024-04-16 05:24:28,15.08840751,0.0001474,53.2164,197.7171,99.8976,260.2183,2.0576e-05,4e-07,0.0,0 STARLINK-3604,1 51815U 22017AZ  24107.22533312  .00000040  00000-0  20576-4 0  9995,2 51815  53.2164 197.7171 0001474  99.8976 260.2183 15.08840751119664,6917.878,95.438,540.763,538.723,0.0
51815.0,STARLINK-3604,PAYLOAD,2024-04-16 13:21:23,15.08855924,0.0001657,53.2174,196.2266,87.8819,272.2363,0.0002546,3.768e-05,0.0,0 STARLINK-3604,1 51815U 22017AZ  24107.55652569  .00003768  00000-0  25460-3 0  9993,2 51815  53.2174 196.2266 0001657  87.8819 272.2363 15.08855924119593,6917.832,95.437,540.843,538.55,0.0
51815.0,STARLINK-3604,PAYLOAD,2024-04-17 11:36:47,15.0884957,0.0001557,53.2173,192.0642,82.2581,277.8588,0.00013144,1.805e-05,0.0,0 STARLINK-3604,1 51815U 22017AZ  24108.48388719  .00001805  00000-0  13144-3 0  9995,2 51815  53.2173 192.0642 0001557  82.2581 277.8588 15.08849570119857,6917.851,95.437,540.793,538.639,0.0
